STARLINK-2401           
1 47818U 21018AH  24268.31144263  .00002592  00000+0  19286-3 0  9992
2 47818  53.0544 122.5306 0001206  99.5496 260.5630 15.06400580196424
STARLINK-2402           
1 47819U 21018AJ  24268.30905330  .00002087  00000+0  15892-3 0  9990
2 47819  53.0532 117.0671 0001184 104.4001 255.7120 15.06400842196565
STARLINK-2403           
1 47820U 21018AK  24268.62238690  .00006598  00000+0  46134-3 0  9999
2 47820  53.0544 125.6713 0001898  93.7013 266.4193 15.06406856196466
STARLINK-2406           
1 47821U 21018AL  24268.00406622 -.00000216  00000+0  44083-5 0  9999
2 47821  53.0534 118.4576 0001604  86.7074 273.4099 15.06395521196455
STARLINK-2407           
1 47822U 21018AM  24268.61038775  .00010226  00000+0  70404-3 0  9992
2 47822  53.0519 125.7138 0001399  89.2464 270.8685 15.06419279196411
STARLINK-2408           
1 47823U 21018AN  24268.29431225  .00003878  00000+0  27902-3 0  9994
2 47823  53.0524 117.1336 0001185  81.3003 278.8120 15.06409170196509
STARLINK-2409           
1 47824U 21018AP  24268.28420109 -.00000068  00000+0  14330-4 0  9994
2 47824  53.0520 117.1904 0001966  94.0782 266.0432 15.06395717196493
STARLINK-2410           
1 47825U 21018AQ  24268.30262809  .00002044  00000+0  15606-3 0  9990
2 47825  53.0514 117.1065 0001396  86.9932 273.1217 15.06402678196506
STARLINK-2411           
1 47826U 21018AR  24268.29894155  .00000620  00000+0  60506-4 0  9992
2 47826  53.0500 117.1227 0001344  91.7743 268.3400 15.06400175196509
STARLINK-2413           
1 47827U 21018AS  24268.28145938  .00002414  00000+0  18088-3 0  9990
2 47827  53.0516 107.4436 0001468  90.3602 269.7555 15.06404275196698
STARLINK-2415           
1 47828U 21018AT  24268.34962068  .00002596  00000+0  19304-3 0  9992
2 47828  53.0537 126.8952 0001427  97.0696 263.0455 15.06408116196371
STARLINK-2416           
1 47829U 21018AU  24268.63344021  .00002884  00000+0  21245-3 0  9995
2 47829  53.0567 125.6228 0001240  74.2789 285.8337 15.06396934196400
STARLINK-2419           
1 47830U 21018AV  24268.62973893  .00001008  00000+0  86524-4 0  9990
2 47830  53.0528 125.6388 0001410  87.2782 272.8368 15.06419007196409
STARLINK-2420           
1 47831U 21018AW  24268.56385810  .00000438  00000+0  48292-4 0  9996
2 47831  53.0532 100.9323 0001595  93.4451 266.6720 15.06405690196806
STARLINK-2422           
1 47832U 21018AX  24268.32106354  .00004137  00000+0  29645-3 0  9995
2 47832  53.0502 117.0227 0001766  87.7738 272.3453 15.06403133196504
STARLINK-2423           
1 47833U 21018AY  24268.28051642  .00001318  00000+0  10737-3 0  9990
2 47833  53.0521 117.2079 0001772  92.0067 268.1125 15.06397483196558
STARLINK-2424           
1 47834U 21018AZ  24268.29157401 -.00001153  00000+0 -58495-4 0  9995
2 47834  53.0518 117.1559 0001801  82.4974 277.6219 15.06392296196556
STARLINK-2426           
1 47836U 21018BB  24268.31001127  .00004545  00000+0  32376-3 0  9998
2 47836  53.0506 117.1613 0001169  87.9559 272.1564 15.06402182196506
STARLINK-2427           
1 47837U 21018BC  24268.25286233  .00002137  00000+0  16225-3 0  9995
2 47837  53.0527  97.3309 0001139  94.6468 265.4651 15.06406044196785
STARLINK-2429           
1 47838U 21018BD  24268.00037927  .00001258  00000+0  10335-3 0  9992
2 47838  53.0530 118.4604 0001695  98.4898 261.6283 15.06401056196450
STARLINK-2431           
1 47839U 21018BE  24268.22797473  .00002321  00000+0  17462-3 0  9996
2 47839  53.0538  87.4400 0000939  99.4191 260.6904 15.06408189196920
STARLINK-2432           
1 47840U 21018BF  24268.23811539  .00000962  00000+0  83484-4 0  9996
2 47840  53.0506  97.3967 0001429  94.9799 265.1353 15.06405500196779
STARLINK-2433           
1 47841U 21018BG  24268.56616592  .00003472  00000+0  25181-3 0  9993
2 47841  53.0522  95.9224 0001409  88.5148 271.6003 15.06411910196825
STARLINK-2434           
1 47842U 21018BH  24268.35330528  .00001311  00000+0  10688-3 0  9999
2 47842  53.0531 126.8759 0001685 110.4224 249.6946 15.06403131196422
STARLINK-2435           
1 47843U 21018BJ  24268.32613148  .00004869  00000+0  34560-3 0  9995
2 47843  53.0529 122.0019 0001691  86.1714 273.9468 15.06390857196459
STARLINK-2446           
1 47844U 21018BK  24268.32474274  .00000014  00000+0  19857-4 0  9992
2 47844  53.0494 117.0080 0001915  89.0461 271.0747 15.06401176196505
STARLINK-2453           
1 47845U 21018BL  24268.60855649  .00006006  00000+0  42162-3 0  9994
2 47845  53.0545 115.7333 0001037  84.3293 275.7814 15.06411161196551
STARLINK-2258           
1 47860U 21021A   24268.07870928  .00043004  00000+0  28869-2 0  9999
2 47860  53.0525 148.1142 0001523  93.3341 266.7822 15.06418531195824
STARLINK-2280           
1 47861U 21021B   24268.62744796  .00011390  00000+0  78194-3 0  9994
2 47861  53.0530 130.6483 0001629  92.9233 267.1942 15.06417136196220
STARLINK-2291           
1 47862U 21021C   24268.34225377  .00004597  00000+0  32724-3 0  9993
2 47862  53.0548 126.9286 0001421  86.8375 273.2776 15.06404490196242
STARLINK-2293           
1 47863U 21021D   24268.63251548  .00005782  00000+0  40670-3 0  9991
2 47863  53.0523 135.6214 0001369  97.3280 262.7865 15.06403454196158
STARLINK-2304           
1 47864U 21021E   24268.34594536  .00004430  00000+0  31618-3 0  9998
2 47864  53.0534 126.9570 0001489  97.6814 262.4344 15.06394850196224
STARLINK-2310           
1 47865U 21021F   24268.34038262  .00003795  00000+0  27353-3 0  9992
2 47865  53.0517 136.9295 0001471 103.9243 256.1910 15.06403482196219
STARLINK-2320           
1 47866U 21021G   24268.61040424  .00012557  00000+0  86023-3 0  9991
2 47866  53.0525 135.7262 0001238 101.4687 258.6441 15.06405979196305
STARLINK-2321           
1 47867U 21021H   24268.60395084  .00015834  00000+0  10793-2 0  9997
2 47867  53.0509 125.7534 0001339  85.8699 274.2443 15.06406959196247
STARLINK-2323           
1 47868U 21021J   24268.46479540  .00001653  00000+0  12979-3 0  9995
2 47868  53.0533  76.3757 0001429  93.9573 266.1579 15.06405998196976
STARLINK-2324           
1 47869U 21021K   24268.33487743  .00006292  00000+0  44090-3 0  9999
2 47869  53.0499 126.9614 0001466  83.1271 276.9884 15.06399527196359
STARLINK-2326           
1 47870U 21021L   24268.41919848  .00013398  00000+0  91645-3 0  9999
2 47870  53.0537 151.5841 0001710 110.7951 249.3222 15.06408160195807
STARLINK-2327           
1 47871U 21021M   24268.33119778  .00005649  00000+0  39778-3 0  9994
2 47871  53.0523 126.9770 0001674  97.0725 263.0455 15.06403033196249
STARLINK-2329           
1 47873U 21021P   24268.31276058  .00000859  00000+0  76549-4 0  9995
2 47873  53.0498 127.0623 0001771  94.9161 265.2030 15.06403423196234
STARLINK-2330           
1 47874U 21021Q   24268.52146978  .00004044  00000+0  29015-3 0  9991
2 47874  53.0519  81.1307 0001451  88.2519 271.8636 15.06408893196901
STARLINK-2331           
1 47875U 21021R   24268.37081686  .00007224  00000+0  50326-3 0  9991
2 47875  53.0518 136.8022 0001373  86.0433 274.0713 15.06407675196163
STARLINK-2332           
1 47876U 21021S   24268.35976184  .00003357  00000+0  24416-3 0  9990
2 47876  53.0509 136.8510 0001160  79.9826 280.1294 15.06399986196119
STARLINK-2333           
1 47877U 21021T   24267.91008328  .00001526  00000+0  12132-3 0  9996
2 47877  53.0514 138.8722 0001781  82.5948 277.5243 15.06397052195561
STARLINK-2335           
1 47878U 21021U   24268.05383190  .00021234  00000+0  14395-2 0  9996
2 47878  53.0518 138.2235 0001477  77.5439 282.5715 15.06416550195857
STARLINK-2336           
1 47879U 21021V   24268.38234091  .00002420  00000+0  18133-3 0  9999
2 47879  53.0539 151.7525 0001574 100.9211 259.1956 15.06396853196075
STARLINK-2337           
1 47880U 21021W   24268.62053583  .00015847  00000+0  10799-2 0  9999
2 47880  53.0521 145.6806 0001276  97.7996 262.3138 15.06415445196004
STARLINK-2339           
1 47881U 21021X   24268.38095017  .00011107  00000+0  76312-3 0  9990
2 47881  53.0514 146.7559 0001527  97.5387 262.5775 15.06411476195935
STARLINK-2340           
1 47882U 21021Y   24268.34048907  .00015892  00000+0  96380-3 0  9995
2 47882  53.0510 135.3819 0002317 115.6188 244.5043 15.10706117196296
STARLINK-2342           
1 47883U 21021Z   24268.39432005  .00012821  00000+0  87799-3 0  9990
2 47883  53.0522 141.6962 0001565 107.3297 252.7863 15.06401401196218
STARLINK-2343           
1 47884U 21021AA  24268.37726636  .00017166  00000+0  11681-2 0  9998
2 47884  53.0513 146.7724 0001183 107.5809 252.5309 15.06411793195967
STARLINK-2344           
1 47885U 21021AB  24268.37127650  .00017194  00000+0  11700-2 0  9993
2 47885  53.0538 151.7988 0001155  98.4412 261.6708 15.06411646196052
STARLINK-2346           
1 47887U 21021AD  24268.39570303  .00018078  00000+0  12291-2 0  9992
2 47887  53.0522 146.6912 0001646  94.5709 265.5468 15.06409118195975
STARLINK-2348           
1 47888U 21021AE  24268.35238875  .00002352  00000+0  17673-3 0  9992
2 47888  53.0531 136.8888 0001799  91.6856 268.4339 15.06400590196110
STARLINK-2349           
1 47889U 21021AF  24268.62883309  .00018737  00000+0  12731-2 0  9994
2 47889  53.0507 135.6418 0001474  85.3484 274.7674 15.06409786196205
STARLINK-2351           
1 47891U 21021AH  24268.36986960 -.00006216  00000+0 -39867-3 0  9996
2 47891  53.0520 146.8063 0001997  84.2086 275.9131 15.06405525196139
STARLINK-2352           
1 47892U 21021AJ  24268.55683755  .00003688  00000+0  26628-3 0  9993
2 47892  53.0527 105.1956 0001360  91.4063 268.7082 15.06406995196581
STARLINK-2354           
1 47894U 21021AL  24268.06119971  .00020917  00000+0  14183-2 0  9991
2 47894  53.0541 138.1905 0001296  83.3785 276.7351 15.06418207196013
STARLINK-2355           
1 47895U 21021AM  24268.33763109  .00012891  00000+0  88229-3 0  9995
2 47895  53.0521 136.9503 0001386  97.0076 263.1070 15.06417317196083
